OBJECT_NAME,OBJECT_ID,EPOCH,MEAN_MOTION,ECCENTRICITY,INCLINATION,RA_OF_ASC_NODE,ARG_OF_PERICENTER,MEAN_ANOMALY,EPHEMERIS_TYPE,CLASSIFICATION_TYPE,NORAD_CAT_ID,ELEMENT_SET_NO,REV_AT_EPOCH,BSTAR,MEAN_MOTION_DOT,MEAN_MOTION_DDOT
ONEWEB-0130,2020-100U,2026-06-13T12:43:54.037920,13.12442498,.00017231,87.8949,351.3793,92.5149,267.6177,0,U,47276,999,26416,-.31509376E-3,-.101E-5,0
ONEWEB-0131,2020-100V,2026-06-13T12:39:00.642528,13.12442753,.00017446,87.8938,351.3987,90.3451,269.7877,0,U,47277,999,26420,.11279608E-4,.17E-6,0
ONEWEB-0132,2020-100W,2026-06-13T13:20:29.507712,13.12444254,.00017233,87.8940,351.3946,90.2504,269.8822,0,U,47278,999,26410,-.85659758E-3,-.295E-5,0
ONEWEB-0133,2020-100X,2026-06-13T13:44:40.928352,13.12445475,.00016328,87.8952,351.3670,87.8828,272.2487,0,U,47279,999,26426,.70995092E-3,.268E-5,0
ONEWEB-0134,2020-100Y,2026-06-13T13:00:57.770784,13.12441300,.00016,87.8952,351.3700,97.4962,262.6348,0,U,47280,999,26423,-.11452396E-2,-.399E-5,0
ONEWEB-0135,2020-100Z,2026-06-13T12:19:30.072864,13.12443893,.00014908,87.8939,351.3992,93.9220,266.2079,0,U,47281,999,26425,.11777808E-2,.436E-5,0
ONEWEB-0136,2020-100AA,2026-06-13T12:46:19.737696,13.12442869,.00015683,87.8946,351.3761,97.4717,262.6590,0,U,47282,999,26418,-.40617396E-3,-.133E-5,0
ONEWEB-0137,2020-100AB,2026-06-13T13:35:07.236672,13.12445327,.00019368,87.8952,351.3797,89.0061,271.1290,0,U,47283,999,26409,.15807934E-3,.7E-6,0
ONEWEB-0138,2020-100AC,2026-06-13T13:03:24.680160,13.12443208,.00016945,87.8947,351.3892,97.0254,263.1067,0,U,47284,999,26417,-.12548879E-2,-.439E-5,0
ONEWEB-0139,2020-100AD,2026-06-13T14:02:09.837312,13.12444238,.00017824,87.8947,351.3680,91.9044,268.2288,0,U,47285,999,26425,.12387646E-2,.458E-5,0
ONEWEB-0140,2020-100AE,2026-06-13T12:56:05.291232,13.12443302,.00016635,87.8949,351.3676,86.2991,273.8327,0,U,47286,999,26421,-.75971521E-3,-.261E-5,0
ONEWEB-0141,2020-100AF,2026-06-13T12:11:59.108064,13.12444506,.00021157,87.8948,351.3790,89.9543,270.1828,0,U,47287,999,26419,.12252708E-2,.454E-5,0
ONEWEB-0142,2020-100AG,2026-06-13T13:45:06.948576,13.12444058,.00020997,87.8941,351.3878,98.2659,261.8708,0,U,47288,999,26419,.66503005E-3,.252E-5,0
ONEWEB-0143,2020-100AH,2026-06-13T12:09:44.767296,13.12444660,.00018437,87.8947,351.3997,89.8178,270.3162,0,U,47289,999,26416,.12925774E-2,.478E-5,0
ONEWEB-0144,2020-100AJ,2026-06-13T15:07:50.698560,13.12445141,.00017968,87.8951,351.3488,102.6253,257.5076,0,U,47290,999,26410,-.7886449E-3,-.271E-5,0
ONEWEB-0145,2020-100AK,2026-06-13T12:36:34.737984,13.12442889,.0001808,87.8941,351.3978,92.8584,267.2751,0,U,47291,999,26428,.55668573E-4,.33E-6,0
ONEWEB-0146,2020-100AL,2026-06-13T12:31:42.317184,13.12443283,.000172,87.8948,351.3900,79.0155,281.1167,0,U,47292,999,26419,.63505326E-3,.241E-5,0
ONEWEB-0147,2020-100AM,2026-06-13T13:32:40.866432,13.12445402,.00016537,87.8949,351.3634,90.7671,269.3647,0,U,47293,999,26409,.1326997E-5,.13E-6,0
ONEWEB-0115,2021-025A,2026-06-13T10:37:56.735328,13.13469502,.00017811,87.8955,320.9686,94.0576,266.0757,0,U,48042,999,25310,.28645375E-4,.23E-6,0
ONEWEB-0152,2021-025B,2026-06-13T10:57:26.280288,13.13470067,.00017475,87.8957,320.9622,92.1002,268.0328,0,U,48043,999,25306,-.82896937E-3,-.29E-5,0
ONEWEB-0153,2021-025C,2026-06-13T15:54:50.335776,13.13470493,.00018772,87.8951,320.9248,97.9570,262.1772,0,U,48044,999,25308,.83286868E-3,.317E-5,0
ONEWEB-0154,2021-025D,2026-06-13T15:49:57.921024,13.13469992,.00017178,87.8952,320.9230,96.6196,263.5129,0,U,48045,999,25304,.99901713E-3,.378E-5,0
ONEWEB-0116,2021-025E,2026-06-13T11:16:55.425216,13.13469259,.00017445,87.8959,320.9574,92.9167,267.2162,0,U,48046,999,25316,-.52978478E-3,-.181E-5,0
ONEWEB-0150,2021-025F,2026-06-13T10:42:48.932352,13.13469417,.00020062,87.8958,320.9592,94.0628,266.0731,0,U,48047,999,25305,-.16903432E-3,-.49E-6,0
ONEWEB-0107,2021-025G,2026-06-13T10:45:15.143616,13.13469753,.00019562,87.8960,320.9548,102.5668,257.5680,0,U,48048,999,25303,-.20856136E-3,-.63E-6,0
ONEWEB-0101,2021-025H,2026-06-13T13:31:00.827328,13.13471125,.00017648,87.8947,320.9479,101.1713,258.9615,0,U,48049,999,25302,.39482234E-3,.157E-5,0
ONEWEB-0113,2021-025J,2026-06-13T15:57:25.485120,13.13893978,.00018422,87.8954,320.8384,93.2012,266.9328,0,U,48050,999,25314,.50063845E-3,.197E-5,0
ONEWEB-0112,2021-025K,2026-06-13T10:52:33.813696,13.13469860,.00017307,87.8961,320.9516,103.7557,256.3765,0,U,48051,999,25310,-.54584412E-3,-.187E-5,0
ONEWEB-0156,2021-025L,2026-06-13T11:04:44.759424,13.13470366,.00019348,87.8959,320.9602,98.1337,262.0012,0,U,48052,999,25308,-.71269402E-3,-.248E-5,0
ONEWEB-0161,2021-025M,2026-06-13T15:57:16.530624,13.13470472,.00019589,87.8958,320.9212,99.7458,260.3892,0,U,48053,999,25304,.65040649E-3,.25E-5,0
