ONEWEB-0130             
1 47276U 20100U   26164.53048655 -.00000101  00000+0 -31509-3 0  9998
2 47276  87.8949 351.3793 0001723  92.5149 267.6177 13.12442498264160
ONEWEB-0131             
1 47277U 20100V   26164.52709077  .00000017  00000+0  11280-4 0  9999
2 47277  87.8938 351.3987 0001744  90.3451 269.7877 13.12442753264208
ONEWEB-0132             
1 47278U 20100W   26164.55589708 -.00000295  00000+0 -85660-3 0  9992
2 47278  87.8940 351.3946 0001723  90.2504 269.8822 13.12444254264100
ONEWEB-0133             
1 47279U 20100X   26164.57269593  .00000268  00000+0  70995-3 0  9995
2 47279  87.8952 351.3670 0001632  87.8828 272.2487 13.12445475264266
ONEWEB-0134             
1 47280U 20100Y   26164.54233531 -.00000399  00000+0 -11452-2 0  9996
2 47280  87.8952 351.3700 0001600  97.4962 262.6348 13.12441300264232
ONEWEB-0135             
1 47281U 20100Z   26164.51354251  .00000436  00000+0  11778-2 0  9998
2 47281  87.8939 351.3992 0001490  93.9220 266.2079 13.12443893264258
ONEWEB-0136             
1 47282U 20100AA  26164.53217289 -.00000133  00000+0 -40617-3 0  9991
2 47282  87.8946 351.3761 0001568  97.4717 262.6590 13.12442869264189
ONEWEB-0137             
1 47283U 20100AB  26164.56605598  .00000070  00000+0  15808-3 0  9991
2 47283  87.8952 351.3797 0001936  89.0061 271.1290 13.12445327264098
ONEWEB-0138             
1 47284U 20100AC  26164.54403565 -.00000439  00000+0 -12549-2 0  9999
2 47284  87.8947 351.3892 0001694  97.0254 263.1067 13.12443208264171
ONEWEB-0139             
1 47285U 20100AD  26164.58483608  .00000458  00000+0  12388-2 0  9990
2 47285  87.8947 351.3680 0001782  91.9044 268.2288 13.12444238264259
ONEWEB-0140             
1 47286U 20100AE  26164.53895013 -.00000261  00000+0 -75972-3 0  9996
2 47286  87.8949 351.3676 0001663  86.2991 273.8327 13.12443302264216
ONEWEB-0141             
1 47287U 20100AF  26164.50832301  .00000454  00000+0  12253-2 0  9999
2 47287  87.8948 351.3790 0002115  89.9543 270.1828 13.12444506264199
ONEWEB-0142             
1 47288U 20100AG  26164.57299709  .00000252  00000+0  66503-3 0  9990
2 47288  87.8941 351.3878 0002099  98.2659 261.8708 13.12444058264198
ONEWEB-0143             
1 47289U 20100AH  26164.50676814  .00000478  00000+0  12926-2 0  9999
2 47289  87.8947 351.3997 0001843  89.8178 270.3162 13.12444660264160
ONEWEB-0144             
1 47290U 20100AJ  26164.63044790 -.00000271  00000+0 -78864-3 0  9994
2 47290  87.8951 351.3488 0001796 102.6253 257.5076 13.12445141264107
ONEWEB-0145             
1 47291U 20100AK  26164.52540206  .00000033  00000+0  55669-4 0  9999
2 47291  87.8941 351.3978 0001808  92.8584 267.2751 13.12442889264285
ONEWEB-0146             
1 47292U 20100AL  26164.52201756  .00000241  00000+0  63505-3 0  9992
2 47292  87.8948 351.3900 0001720  79.0155 281.1167 13.12443283264197
ONEWEB-0147             
1 47293U 20100AM  26164.56436188  .00000013  00000+0  13270-5 0  9999
2 47293  87.8949 351.3634 0001653  90.7671 269.3647 13.12445402264096
ONEWEB-0115             
1 48042U 21025A   26164.44301777  .00000023  00000+0  28645-4 0  9993
2 48042  87.8955 320.9686 0001781  94.0576 266.0757 13.13469502253102
ONEWEB-0152             
1 48043U 21025B   26164.45655417 -.00000290  00000+0 -82897-3 0  9994
2 48043  87.8957 320.9622 0001747  92.1002 268.0328 13.13470067253069
ONEWEB-0153             
1 48044U 21025C   26164.66308259  .00000317  00000+0  83287-3 0  9999
2 48044  87.8951 320.9248 0001877  97.9570 262.1772 13.13470493253088
ONEWEB-0154             
1 48045U 21025D   26164.65969816  .00000378  00000+0  99902-3 0  9999
2 48045  87.8952 320.9230 0001717  96.6196 263.5129 13.13469992253043
ONEWEB-0116             
1 48046U 21025E   26164.47008594 -.00000181  00000+0 -52978-3 0  9993
2 48046  87.8959 320.9574 0001744  92.9167 267.2162 13.13469259253166
ONEWEB-0150             
1 48047U 21025F   26164.44639968 -.00000049  00000+0 -16903-3 0  9997
2 48047  87.8958 320.9592 0002006  94.0628 266.0731 13.13469417253056
ONEWEB-0107             
1 48048U 21025G   26164.44809194 -.00000063  00000+0 -20856-3 0  9996
2 48048  87.8960 320.9548 0001956 102.5668 257.5680 13.13469753253032
ONEWEB-0101             
1 48049U 21025H   26164.56320402  .00000157  00000+0  39482-3 0  9997
2 48049  87.8947 320.9479 0001764 101.1713 258.9615 13.13471125253022
ONEWEB-0113             
1 48050U 21025J   26164.66487830  .00000197  00000+0  50064-3 0  9992
2 48050  87.8954 320.8384 0001842  93.2012 266.9328 13.13893978253143
ONEWEB-0112             
1 48051U 21025K   26164.45316914 -.00000187  00000+0 -54584-3 0  9996
2 48051  87.8961 320.9516 0001730 103.7557 256.3765 13.13469860253100
ONEWEB-0156             
1 48052U 21025L   26164.46162916 -.00000248  00000+0 -71269-3 0  9996
2 48052  87.8959 320.9602 0001934  98.1337 262.0012 13.13470366253082
ONEWEB-0161             
1 48053U 21025M   26164.66477466  .00000250  00000+0  65041-3 0  9990
2 48053  87.8958 320.9212 0001958  99.7458 260.3892 13.13470472253047
